start=new Date('2022-06-22T00:00:00.000Z').valueOf();
sats=[{"OBJECT_ID":"2022-053BD","ECCENTRICITY":"0.00022600","FILE":"3499203","LAUNCH_DATE":"2022-05-18","CLASSIFICATION_TYPE":"U","TLE_LINE1":"1 52707U 22053BD  22172.91667824 -.00066332  00000-0 -47149-3 0  9990","NORAD_CAT_ID":"52707","SEMIMAJOR_AXIS":"6727.843","RA_OF_ASC_NODE":"127.1381","INCLINATION":"53.2156","OBJECT_TYPE":"PAYLOAD","RCS_SIZE":"LARGE","MEAN_ANOMALY":"120.7779","EPOCH":"2022-06-21T22:00:00.999936","TLE_LINE2":"2 52707  53.2156 127.1381 0002260  18.8131 120.7779 15.73218220  1308","MEAN_MOTION":"15.73218220","ELEMENT_SET_NO":"999","PERIOD":"91.532","TIME_SYSTEM":"UTC","DECAY_DATE":null,"APOAPSIS":"351.229","PERIAPSIS":"348.188","BSTAR":"-0.00047149000000","OBJECT_NAME":"STARLINK-4007","REF_FRAME":"TEME","MEAN_MOTION_DDOT":"0.0000000000000","MEAN_MOTION_DOT":"-0.00066332","REV_AT_EPOCH":"130","GP_ID":"206584882","CENTER_NAME":"EARTH","ARG_OF_PERICENTER":"18.8131","COUNTRY_CODE":"US","SITE":"AFETR","EPHEMERIS_TYPE":"0","MEAN_ELEMENT_THEORY":"SGP4"},{"ECCENTRICITY":"0.00024120","OBJECT_ID":"2022-053BE","LAUNCH_DATE":"2022-05-18","FILE":"3499203","CLASSIFICATION_TYPE":"U","TLE_LINE1":"1 52708U 22053BE  22172.91667824  .00017384  00000-0  12813-3 0  9992","RCS_SIZE":"LARGE","OBJECT_TYPE":"PAYLOAD","INCLINATION":"53.2160","RA_OF_ASC_NODE":"127.1384","NORAD_CAT_ID":"52708","SEMIMAJOR_AXIS":"6727.952","EPOCH":"2022-06-21T22:00:00.999936","MEAN_ANOMALY":"122.8535","TLE_LINE2":"2 52708  53.2160 127.1384 0002412  17.3572 122.8535 15.73180042  1302","MEAN_MOTION":"15.73180042","PERIOD":"91.534","ELEMENT_SET_NO":"999","TIME_SYSTEM":"UTC","OBJECT_NAME":"STARLINK-3962","BSTAR":"0.00012813000000","DECAY_DATE":null,"PERIAPSIS":"348.194","APOAPSIS":"351.440","REV_AT_EPOCH":"130","MEAN_MOTION_DOT":"0.00017384","MEAN_MOTION_DDOT":"0.0000000000000","REF_FRAME":"TEME","CENTER_NAME":"EARTH","GP_ID":"206584354","SITE":"AFETR","COUNTRY_CODE":"US","ARG_OF_PERICENTER":"17.3572","MEAN_ELEMENT_THEORY":"SGP4","EPHEMERIS_TYPE":"0"}];
